STARLINK-31157          
1 58735U 24005H   26045.26278712  .00000485  00000+0  50944-4 0  9993
2 58735  43.0061 349.2524 0001093 267.7401  92.3316 15.02538349116892
STARLINK-31076          
1 58736U 24005J   26045.25947977  .00002881  00000+0  22840-3 0  9994
2 58736  42.9993 349.2340 0000901  15.5735 344.5135 15.02512402116935
STARLINK-31101          
1 58737U 24005K   26045.25279850  .00005006  00000+0  38546-3 0  9995
2 58737  43.0052 349.1784 0001812 251.0092 109.0555 15.02532627116885
STARLINK-31108          
1 58738U 24005L   26045.25615711 -.00003027  00000+0 -20917-3 0  9992
2 58738  42.9980 349.2110 0000889 273.2583  86.8157 15.02521233116883
STARLINK-31042          
1 58739U 24005M   26045.18299203  .00000338  00000+0  40115-4 0  9992
2 58739  43.0033 349.5158 0000517 350.9852   9.0981 15.02535704116880
STARLINK-31159          
1 58740U 24005N   26045.24616776  .00018408  00000+0  13774-2 0  9995
2 58740  43.0036 349.1306 0000672  16.2759 343.8105 15.02446760116987
STARLINK-31148          
1 58741U 24005P   26045.24281307 -.00001059  00000+0 -63354-4 0  9991
2 58741  43.0039 349.1231 0000938 275.4229  84.6507 15.02544447116891
STARLINK-31151          
1 58742U 24005Q   26045.23948464 -.00002304  00000+0 -15557-3 0  9990
2 58742  42.9997 349.1022 0000732 321.4314  38.6476 15.02530727116980
STARLINK-31156          
1 58743U 24005R   26045.23614953  .00000217  00000+0  31155-4 0  9996
2 58743  43.0042 349.0716 0000977 273.6387  86.4343 15.02532888116942
STARLINK-31167          
1 58744U 24005S   26044.82401207 -.00000771  00000+0 -18505-4 0  9998
2 58744  43.0002 209.0839 0001070 241.2436 118.8309 15.27573851118554
STARLINK-31176          
1 58745U 24005T   26045.16299310  .00001454  00000+0  12264-3 0  9999
2 58745  43.0051 349.3791 0001119 263.6191  96.4524 15.02553243116929
STARLINK-31181          
1 58746U 24005U   26044.89935695  .00000905  00000+0  42427-4 0  9997
2 58746  43.0018 201.8714 0001738 266.3872  93.6781 15.27582785118648
STARLINK-31183          
1 58747U 24005V   26045.22283264  .00000634  00000+0  62018-4 0  9991
2 58747  43.0027 348.9691 0000893 272.4991  87.5749 15.02528033116998
STARLINK-31165          
1 58748U 24005W   26045.22615960  .00000528  00000+0  54151-4 0  9995
2 58748  43.0058 348.9887 0001409 263.3910  96.6772 15.02534988116896
STARLINK-31160          
1 58749U 24005X   26044.21899326  .00000396  00000+0  44420-4 0  9995
2 58749  43.0045 354.2688 0001307 269.8475  90.2217 15.02536818116748
STARLINK-31179          
1 58750U 24005Y   26045.21950191  .00000829  00000+0  76437-4 0  9990
2 58750  43.0044 348.9386 0001085 266.6603  93.4116 15.02535094116899
