[{"OBJECT_NAME":"STARLINK-31157","OBJECT_ID":"2024-005H","EPOCH":"2026-02-14T06:18:24.807168","MEAN_MOTION":15.02538349,"ECCENTRICITY":0.00010933,"INCLINATION":43.0061,"RA_OF_ASC_NODE":349.2524,"ARG_OF_PERICENTER":267.7401,"MEAN_ANOMALY":92.3316,"EPHEMERIS_TYPE":0,"CLASSIFICATION_TYPE":"U","NORAD_CAT_ID":58735,"ELEMENT_SET_NO":999,"REV_AT_EPOCH":11689,"BSTAR":5.0944456e-5,"MEAN_MOTION_DOT":4.85e-6,"MEAN_MOTION_DDOT":0},{"OBJECT_NAME":"STARLINK-31076","OBJECT_ID":"2024-005J","EPOCH":"2026-02-14T06:13:39.052128","MEAN_MOTION":15.02512402,"ECCENTRICITY":9.017e-5,"INCLINATION":42.9993,"RA_OF_ASC_NODE":349.234,"ARG_OF_PERICENTER":15.5735,"MEAN_ANOMALY":344.5135,"EPHEMERIS_TYPE":0,"CLASSIFICATION_TYPE":"U","NORAD_CAT_ID":58736,"ELEMENT_SET_NO":999,"REV_AT_EPOCH":11693,"BSTAR":0.00022839634,"MEAN_MOTION_DOT":2.881e-5,"MEAN_MOTION_DDOT":0},{"OBJECT_NAME":"STARLINK-31101","OBJECT_ID":"2024-005K","EPOCH":"2026-02-14T06:04:01.790400","MEAN_MOTION":15.02532627,"ECCENTRICITY":0.0001812,"INCLINATION":43.0052,"RA_OF_ASC_NODE":349.1784,"ARG_OF_PERICENTER":251.0092,"MEAN_ANOMALY":109.0555,"EPHEMERIS_TYPE":0,"CLASSIFICATION_TYPE":"U","NORAD_CAT_ID":58737,"ELEMENT_SET_NO":999,"REV_AT_EPOCH":11688,"BSTAR":0.00038546096,"MEAN_MOTION_DOT":5.006e-5,"MEAN_MOTION_DDOT":0},{"OBJECT_NAME":"STARLINK-31108","OBJECT_ID":"2024-005L","EPOCH":"2026-02-14T06:08:51.974304","MEAN_MOTION":15.02521233,"ECCENTRICITY":8.891e-5,"INCLINATION":42.998,"RA_OF_ASC_NODE":349.211,"ARG_OF_PERICENTER":273.2583,"MEAN_ANOMALY":86.8157,"EPHEMERIS_TYPE":0,"CLASSIFICATION_TYPE":"U","NORAD_CAT_ID":58738,"ELEMENT_SET_NO":999,"REV_AT_EPOCH":11688,"BSTAR":-0.00020916801,"MEAN_MOTION_DOT":-3.027e-5,"MEAN_MOTION_DDOT":0},{"OBJECT_NAME":"STARLINK-31042","OBJECT_ID":"2024-005M","EPOCH":"2026-02-14T04:23:30.511392","MEAN_MOTION":15.02535704,"ECCENTRICITY":5.175e-5,"INCLINATION":43.0033,"RA_OF_ASC_NODE":349.5158,"ARG_OF_PERICENTER":350.9852,"MEAN_ANOMALY":9.0981,"EPHEMERIS_TYPE":0,"CLASSIFICATION_TYPE":"U","NORAD_CAT_ID":58739,"ELEMENT_SET_NO":999,"REV_AT_EPOCH":11688,"BSTAR":4.0115172e-5,"MEAN_MOTION_DOT":3.38e-6,"MEAN_MOTION_DDOT":0},{"OBJECT_NAME":"STARLINK-31159","OBJECT_ID":"2024-005N","EPOCH":"2026-02-14T05:54:28.894464","MEAN_MOTION":15.0244676,"ECCENTRICITY":6.721e-5,"INCLINATION":43.0036,"RA_OF_ASC_NODE":349.1306,"ARG_OF_PERICENTER":16.2759,"MEAN_ANOMALY":343.8105,"EPHEMERIS_TYPE":0,"CLASSIFICATION_TYPE":"U","NORAD_CAT_ID":58740,"ELEMENT_SET_NO":999,"REV_AT_EPOCH":11698,"BSTAR":0.0013774398,"MEAN_MOTION_DOT":0.00018408,"MEAN_MOTION_DDOT":0},{"OBJECT_NAME":"STARLINK-31148","OBJECT_ID":"2024-005P","EPOCH":"2026-02-14T05:49:39.049248","MEAN_MOTION":15.02544447,"ECCENTRICITY":9.383e-5,"INCLINATION":43.0039,"RA_OF_ASC_NODE":349.1231,"ARG_OF_PERICENTER":275.4229,"MEAN_ANOMALY":84.6507,"EPHEMERIS_TYPE":0,"CLASSIFICATION_TYPE":"U","NORAD_CAT_ID":58741,"ELEMENT_SET_NO":999,"REV_AT_EPOCH":11689,"BSTAR":-6.3354094e-5,"MEAN_MOTION_DOT":-1.059e-5,"MEAN_MOTION_DDOT":0},{"OBJECT_NAME":"STARLINK-31151","OBJECT_ID":"2024-005Q","EPOCH":"2026-02-14T05:44:51.472896","MEAN_MOTION":15.02530727,"ECCENTRICITY":7.321e-5,"INCLINATION":42.9997,"RA_OF_ASC_NODE":349.1022,"ARG_OF_PERICENTER":321.4314,"MEAN_ANOMALY":38.6476,"EPHEMERIS_TYPE":0,"CLASSIFICATION_TYPE":"U","NORAD_CAT_ID":58742,"ELEMENT_SET_NO":999,"REV_AT_EPOCH":11698,"BSTAR":-0.00015557396,"MEAN_MOTION_DOT":-2.304e-5,"MEAN_MOTION_DDOT":0},{"OBJECT_NAME":"STARLINK-31156","OBJECT_ID":"2024-005R","EPOCH":"2026-02-14T05:40:03.319392","MEAN_MOTION":15.02532888,"ECCENTRICITY":9.777e-5,"INCLINATION":43.0042,"RA_OF_ASC_NODE":349.0716,"ARG_OF_PERICENTER":273.6387,"MEAN_ANOMALY":86.4343,"EPHEMERIS_TYPE":0,"CLASSIFICATION_TYPE":"U","NORAD_CAT_ID":58743,"ELEMENT_SET_NO":999,"REV_AT_EPOCH":11694,"BSTAR":3.1154996e-5,"MEAN_MOTION_DOT":2.17e-6,"MEAN_MOTION_DDOT":0},{"OBJECT_NAME":"STARLINK-31167","OBJECT_ID":"2024-005S","EPOCH":"2026-02-13T19:46:34.642848","MEAN_MOTION":15.27573851,"ECCENTRICITY":0.00010704,"INCLINATION":43.0002,"RA_OF_ASC_NODE":209.0839,"ARG_OF_PERICENTER":241.2436,"MEAN_ANOMALY":118.8309,"EPHEMERIS_TYPE":0,"CLASSIFICATION_TYPE":"U","NORAD_CAT_ID":58744,"ELEMENT_SET_NO":999,"REV_AT_EPOCH":11855,"BSTAR":-1.8505406e-5,"MEAN_MOTION_DOT":-7.71e-6,"MEAN_MOTION_DDOT":0},{"OBJECT_NAME":"STARLINK-31176","OBJECT_ID":"2024-005T","EPOCH":"2026-02-14T03:54:42.603840","MEAN_MOTION":15.02553243,"ECCENTRICITY":0.00011194,"INCLINATION":43.0051,"RA_OF_ASC_NODE":349.3791,"ARG_OF_PERICENTER":263.6191,"MEAN_ANOMALY":96.4524,"EPHEMERIS_TYPE":0,"CLASSIFICATION_TYPE":"U","NORAD_CAT_ID":58745,"ELEMENT_SET_NO":999,"REV_AT_EPOCH":11692,"BSTAR":0.00012263549,"MEAN_MOTION_DOT":1.454e-5,"MEAN_MOTION_DDOT":0},{"OBJECT_NAME":"STARLINK-31181","OBJECT_ID":"2024-005U","EPOCH":"2026-02-13T21:35:04.440480","MEAN_MOTION":15.27582785,"ECCENTRICITY":0.00017384,"INCLINATION":43.0018,"RA_OF_ASC_NODE":201.8714,"ARG_OF_PERICENTER":266.3872,"MEAN_ANOMALY":93.6781,"EPHEMERIS_TYPE":0,"CLASSIFICATION_TYPE":"U","NORAD_CAT_ID":58746,"ELEMENT_SET_NO":999,"REV_AT_EPOCH":11864,"BSTAR":4.242652e-5,"MEAN_MOTION_DOT":9.05e-6,"MEAN_MOTION_DDOT":0},{"OBJECT_NAME":"STARLINK-31183","OBJECT_ID":"2024-005V","EPOCH":"2026-02-14T05:20:52.740096","MEAN_MOTION":15.02528033,"ECCENTRICITY":8.932e-5,"INCLINATION":43.0027,"RA_OF_ASC_NODE":348.9691,"ARG_OF_PERICENTER":272.4991,"MEAN_ANOMALY":87.5749,"EPHEMERIS_TYPE":0,"CLASSIFICATION_TYPE":"U","NORAD_CAT_ID":58747,"ELEMENT_SET_NO":999,"REV_AT_EPOCH":11699,"BSTAR":6.2018422e-5,"MEAN_MOTION_DOT":6.34e-6,"MEAN_MOTION_DDOT":0},{"OBJECT_NAME":"STARLINK-31165","OBJECT_ID":"2024-005W","EPOCH":"2026-02-14T05:25:40.189440","MEAN_MOTION":15.02534988,"ECCENTRICITY":0.00014097,"INCLINATION":43.0058,"RA_OF_ASC_NODE":348.9887,"ARG_OF_PERICENTER":263.391,"MEAN_ANOMALY":96.6772,"EPHEMERIS_TYPE":0,"CLASSIFICATION_TYPE":"U","NORAD_CAT_ID":58748,"ELEMENT_SET_NO":999,"REV_AT_EPOCH":11689,"BSTAR":5.4151474e-5,"MEAN_MOTION_DOT":5.28e-6,"MEAN_MOTION_DDOT":0},{"OBJECT_NAME":"STARLINK-31160","OBJECT_ID":"2024-005X","EPOCH":"2026-02-13T05:15:21.017664","MEAN_MOTION":15.02536818,"ECCENTRICITY":0.0001307,"INCLINATION":43.0045,"RA_OF_ASC_NODE":354.2688,"ARG_OF_PERICENTER":269.8475,"MEAN_ANOMALY":90.2217,"EPHEMERIS_TYPE":0,"CLASSIFICATION_TYPE":"U","NORAD_CAT_ID":58749,"ELEMENT_SET_NO":999,"REV_AT_EPOCH":11674,"BSTAR":4.442e-5,"MEAN_MOTION_DOT":3.96e-6,"MEAN_MOTION_DDOT":0},{"OBJECT_NAME":"STARLINK-31179","OBJECT_ID":"2024-005Y","EPOCH":"2026-02-14T05:16:04.965024","MEAN_MOTION":15.02535094,"ECCENTRICITY":0.00010858,"INCLINATION":43.0044,"RA_OF_ASC_NODE":348.9386,"ARG_OF_PERICENTER":266.6603,"MEAN_ANOMALY":93.4116,"EPHEMERIS_TYPE":0,"CLASSIFICATION_TYPE":"U","NORAD_CAT_ID":58750,"ELEMENT_SET_NO":999,"REV_AT_EPOCH":11689,"BSTAR":7.6436992e-5,"MEAN_MOTION_DOT":8.29e-6,"MEAN_MOTION_DDOT":0}]
